[{"OBJECT_NAME":"A-SEANSAT-PG1","OBJECT_ID":"2023-091AH","EPOCH":"2026-03-09T22:32:06.495648","MEAN_MOTION":15.33422293,"ECCENTRICITY":0.00088895,"INCLINATION":97.5184,"RA_OF_ASC_NODE":136.6191,"ARG_OF_PERICENTER":78.3219,"MEAN_ANOMALY":281.902,"EPHEMERIS_TYPE":0,"CLASSIFICATION_TYPE":"U","NORAD_CAT_ID":57197,"ELEMENT_SET_NO":999,"REV_AT_EPOCH":14948,"BSTAR":0.0007038551,"MEAN_MOTION_DOT":0.00022724,"MEAN_MOTION_DDOT":0},{"OBJECT_NAME":"COSMOS 1328","OBJECT_ID":"1981-117A","EPOCH":"2026-03-09T17:51:53.113536","MEAN_MOTION":15.33902077,"ECCENTRICITY":0.00108717,"INCLINATION":82.4939,"RA_OF_ASC_NODE":350.453,"ARG_OF_PERICENTER":167.9725,"MEAN_ANOMALY":192.1779,"EPHEMERIS_TYPE":0,"CLASSIFICATION_TYPE":"U","NORAD_CAT_ID":12987,"ELEMENT_SET_NO":999,"REV_AT_EPOCH":41406,"BSTAR":0.00040501644,"MEAN_MOTION_DOT":0.00013342,"MEAN_MOTION_DDOT":0}]
